STARLINK-1013
1 24719C 19074G   21325.13733899  .00005525  00000-0  37025-3 0  3252
2 24719  53.0557  32.6062 0001344  76.0572  10.4115 15.06383421    16
